{"epoch":1784902576,"count":18312,"objects":[{"id":"44299","name":"COSMOS 2534 (GLONASS)","type":"PAYLOAD","l1":"1 44299U 19030A   26204.36418141  .00000091  00000-0  00000+0 0  9992","l2":"2 44299  64.3713 191.3984 0013416 275.1477 257.7839  2.13102412 55699"},{"id":"44337","name":"BEIDOU 3 IGSO-2","type":"PAYLOAD","l1":"1 44337U 19035A   26204.77821130 -.00000115  00000-0  00000-0 0  9990","l2":"2 44337  55.2554 158.5416 0039093 213.1598 328.3926  1.00289602 26034"},{"id":"44506","name":"NAVSTAR 78 (USA 293)","type":"PAYLOAD","l1":"1 44506U 19056A   26205.04356296 -.00000111  00000-0  00000-0 0  9994","l2":"2 44506  55.6171 329.6779 0063808 198.3290 161.9999  2.00570584 50815"},{"id":"44542","name":"BEIDOU 3M23","type":"PAYLOAD","l1":"1 44542U 19061A   26204.21835484  .00000073  00000-0  00000-0 0  9995","l2":"2 44542  54.3973 181.5127 0008776   0.5938 359.3899  1.86229305 46462"},{"id":"44543","name":"BEIDOU 3M24","type":"PAYLOAD","l1":"1 44543U 19061B   26204.88258527  .00000067  00000-0  00000-0 0  9999","l2":"2 44543  54.3961 181.4586 0006037 342.2650  14.4138  1.86227559 46478"},{"id":"44624","name":"EUTE 5W B","type":"PAYLOAD","l1":"1 44624U 19067A   26205.25283788 -.00000037  00000-0  00000-0 0  9992","l2":"2 44624   0.0714 329.6024 0003316 151.1977 267.1832  1.00272314 24807"},{"id":"44793","name":"BEIDOU 3M21","type":"PAYLOAD","l1":"1 44793U 19078A   26205.13268220 -.00000084  00000-0  00000-0 0  9994","l2":"2 44793  53.8997 298.5263 0005558  49.2122 310.8760  1.86227293 45338"},{"id":"44794","name":"BEIDOU 3M22","type":"PAYLOAD","l1":"1 44794U 19078B   26203.66162958 -.00000094  00000-0  00000-0 0  9993","l2":"2 44794  53.8746 298.5385 0003510  49.7374 310.3307  1.86227707 45316"},{"id":"44850","name":"COSMOS 2544 (GLONASS)","type":"PAYLOAD","l1":"1 44850U 19088A   26204.16243200 -.00000046  00000-0  00000+0 0  9999","l2":"2 44850  65.5856  72.5304 0012036 253.5575 106.3785  2.13102883 51489"},{"id":"44864","name":"BEIDOU 3M19","type":"PAYLOAD","l1":"1 44864U 19090A   26204.16652241 -.00000073  00000-0  00000-0 0  9997","l2":"2 44864  56.5910  61.6011 0016528 296.6472 239.5314  1.86231503 44900"},{"id":"44865","name":"BEIDOU 3M20","type":"PAYLOAD","l1":"1 44865U 19090B   26202.96464863 -.00000079  00000-0  00000-0 0  9991","l2":"2 44865  56.5915  61.6754 0014231 312.1692 227.7948  1.86231478 44865"},{"id":"45344","name":"BEIDOU 3 G2","type":"PAYLOAD","l1":"1 45344U 20017A   26205.11433727 -.00000138  00000-0  00000-0 0  9996","l2":"2 45344   2.9375  47.8589 0002160  59.2772 315.8991  1.00272742 23635"},{"id":"45358","name":"COSMOS 2545 (GLONASS)","type":"PAYLOAD","l1":"1 45358U 20018A   26204.35735539 -.00000088  00000-0  00000+0 0  9996","l2":"2 45358  64.3311 311.1469 0009943 230.3767 129.5577  2.13102568 49437"},{"id":"45807","name":"BEIDOU 3 G3","type":"PAYLOAD","l1":"1 45807U 20040A   26205.27580466 -.00000351  00000-0  00000-0 0  9993","l2":"2 45807   2.5361  67.5023 0002259 318.7268 125.6152  1.00272711 22444"},{"id":"45854","name":"NAVSTAR 79 (USA 304)","type":"PAYLOAD","l1":"1 45854U 20041A   26203.87491671 -.00000079  00000-0  00000-0 0  9996","l2":"2 45854  56.6939  27.5596 0065610 204.6648 328.6198  2.00558039 44757"},{"id":"46114","name":"GALAXY 30","type":"PAYLOAD","l1":"1 46114U 20056C   26205.22456392  .00000000  00000-0  00000-0 0  9997","l2":"2 46114   0.0239  56.9335 0002426  66.5104 134.3396  1.00270186 21668"},{"id":"46805","name":"COSMOS 2547 (GLONASS)","type":"PAYLOAD","l1":"1 46805U 20075A   26205.01642400  .00000088  00000-0  00000-0 0  9995","l2":"2 46805  64.6018 191.2464 0009468 239.6171 120.2959  2.13100049 44694"},{"id":"46826","name":"NAVSTAR 80 (USA 309)","type":"PAYLOAD","l1":"1 46826U 20078A   26205.17685414  .00000086  00000-0  00000-0 0  9998","l2":"2 46826  53.9765 209.2782 0074779 207.9743 162.9921  2.00565160 42257"},{"id":"48859","name":"NAVSTAR 81 (USA 319)","type":"PAYLOAD","l1":"1 48859U 21054A   26205.20363214 -.00000111  00000-0  00000-0 0  9996","l2":"2 48859  55.1544 330.9717 0026728 228.6396 348.0168  2.00566956 37493"},{"id":"49336","name":"QZS-1R","type":"PAYLOAD","l1":"1 49336U 21096A   26204.54211512 -.00000328  00000-0  00000+0 0  9991","l2":"2 49336  37.5340  79.0424 0755622 272.3546 275.8173  1.00242971 17378"},{"id":"49809","name":"GALILEO 27 (223)","type":"PAYLOAD","l1":"1 49809U 21116A   26204.35640611 -.00000106  00000-0  00000+0 0  9998","l2":"2 49809  57.1472 340.6987 0002573 195.8293 161.8890  1.70476582 28798"},{"id":"49810","name":"GALILEO 28 (224)","type":"PAYLOAD","l1":"1 49810U 21116B   26204.18061353 -.00000106  00000-0  00000-0 0  9992","l2":"2 49810  57.1469 340.7020 0002038 183.2732 179.1905  1.70476626 28822"},{"id":"52984","name":"COSMOS 2557 (GLONASS)","type":"PAYLOAD","l1":"1 52984U 22075A   26204.24196424 -.00000090  00000-0  00000-0 0  9990","l2":"2 52984  64.2748 313.2153 0011103 270.4489  89.4436  2.13102385 31484"},{"id":"54031","name":"COSMOS 2559 (GLONASS)","type":"PAYLOAD","l1":"1 54031U 22130A   26202.65390199 -.00000090  00000-0  00000+0 0  9994","l2":"2 54031  64.2486 313.3533 0013183 181.8332 178.1821  2.13101809 29428"},{"id":"54377","name":"COSMOS 2564 (GLONASS)","type":"PAYLOAD","l1":"1 54377U 22161A   26205.31255973  .00000086  00000-0  00000-0 0  9992","l2":"2 54377  64.7443 191.4793 0012143 224.5905 135.3184  2.13102090 28427"},{"id":"55268","name":"NAVSTAR 82 (USA 343)","type":"PAYLOAD","l1":"1 55268U 23009A   26203.85808699  .00000007  00000-0  00000+0 0  9992","l2":"2 55268  55.1243 147.1168 0006263 321.9041  41.9521  2.00569256 25962"},{"id":"56564","name":"BEIDOU 3 G4","type":"PAYLOAD","l1":"1 56564U 23066A   26205.28161135 -.00000275  00000-0  00000-0 0  9990","l2":"2 56564   0.4540 341.4905 0005216 182.1061  19.8352  1.00270133 11760"},{"id":"56759","name":"NVS-01","type":"PAYLOAD","l1":"1 56759U 23076A   26205.27953134 -.00000329  00000-0  00000-0 0  9994","l2":"2 56759   2.0813 242.6576 0002903  16.2872 273.2122  1.00274843 11482"},{"id":"57517","name":"COSMOS 2569 (GLONASS)","type":"PAYLOAD","l1":"1 57517U 23114A   26203.91704728 -.00000048  00000-0  00000-0 0  9990","l2":"2 57517  65.3229  71.4159 0009430 295.2211  64.7491  2.13103906 23022"},{"id":"58654","name":"BEIDOU 3 M28","type":"PAYLOAD","l1":"1 58654U 23207A   26204.27549741 -.00000074  00000-0  00000-0 0  9997","l2":"2 58654  55.7853  61.0858 0002153  10.4773 349.5911  1.86229831 17510"},{"id":"58655","name":"BEIDOU 3 M26","type":"PAYLOAD","l1":"1 58655U 23207B   26204.07299001 -.00000076  00000-0  00000-0 0  9999","l2":"2 58655  55.7875  61.0793 0001632 323.8282  36.2241  1.86229895 17493"}]}